STARLINK-34670          
1 65424C 25192W   26112.05743056 -.00009412  00000+0 -31729-3 0  1121
2 65424  53.1600  30.7350 0001341  83.0367  20.8430 15.30190212    14
STARLINK-35095          
1 65425C 25192X   26112.07340278  .00022493  00000+0  75818-3 0  1122
2 65425  53.1598  31.2198 0001339  84.1344 182.7769 15.30177371    15
STARLINK-34883          
1 65426C 25192Y   26112.04215278  .00002359  00000+0  79525-4 0  1120
2 65426  53.1597  30.7368 0001332  84.4112 330.1532 15.30185519    17
STARLINK-34916          
1 65427C 25192Z   26112.03868056 -.00000071  00000+0 -23933-5 0  1122
2 65427  53.1598  30.7870 0001284  86.4426 291.5378 15.30181354    14
STARLINK-35004          
1 65428C 25192AA  26112.06437500  .00013255  00000+0  44695-3 0  1124
2 65428  53.1586  31.1077 0001283  82.6486 210.1276 15.30168993    17
STARLINK-35014          
1 65429C 25192AB  26112.12062500  .00038807  00000+0  13085-2 0  1124
2 65429  53.1594  30.9061 0001137  92.3508 121.3944 15.30157966    11
STARLINK-35025          
1 65430C 25192AC  26112.04562500  .00010651  00000+0  35907-3 0  1127
2 65430  53.1598  31.3009 0001212  82.2613  54.8152 15.30179166    10
STARLINK-35034          
1 65431C 25192AD  26112.07965278 -.00014482  00000+0 -48815-3 0  1120
2 65431  53.1584  30.9795 0001227  87.1790 318.8878 15.30195188    19
STARLINK-35142          
1 65434C 25194A   26112.06506944  .00022763  00000+0  15804-2 0  1125
2 65434  97.5869 327.0609 0002022  85.0243 162.9805 15.05644284    14
STARLINK-34978          
1 65435C 25194B   26112.07756944  .00021491  00000+0  14920-2 0  1129
2 65435  97.5864 327.1997 0001763 105.8599 104.7022 15.05645766    18
STARLINK-35043          
1 65436C 25194C   26112.09354167  .00011221  00000+0  79626-3 0  1128
2 65436  97.5847 327.7046 0002177  95.2565 105.2294 15.04831862    16
STARLINK-35080          
1 65437C 25194D   26112.12062500 -.00016119  00000+0 -11191-2 0  1125
2 65437  97.5864 327.2295 0002589  91.3293 322.5635 15.05661038    19
STARLINK-35068          
1 65438C 25194E   26112.07756944  .00019875  00000+0  13800-2 0  1121
2 65438  97.5867 327.0774 0002220  88.3134 197.4014 15.05643463    17
STARLINK-35045          
1 65439C 25194F   26112.08173611  .00021643  00000+0  15026-2 0  1125
2 65439  97.5867 327.1705 0002113  80.9008  77.3416 15.05643747    19
STARLINK-35050          
1 65440C 25194G   26112.08659722  .00010976  00000+0  76212-3 0  1121
2 65440  97.5866 327.2216 0001893  93.1764 196.3838 15.05645971    18
STARLINK-35065          
1 65441C 25194H   26112.07131944  .00024355  00000+0  16910-2 0  1126
2 65441  97.5870 327.0967 0001748  91.4070 220.4414 15.05641385    19
STARLINK-34679          
1 65442C 25194J   26112.12062500 -.00012994  00000+0 -90211-3 0  1129
2 65442  97.5864 327.2361 0002129  90.1049 338.7856 15.05663265    13
STARLINK-34678          
1 65443C 25194K   26112.08590278  .00017761  00000+0  12328-2 0  1120
2 65443  97.5873 327.1245 0001731  94.0391 326.6510 15.05655099    14
STARLINK-35049          
1 65444C 25194L   26112.05951389  .00036990  00000+0  25682-2 0  1124
2 65444  97.5868 327.1291 0002253  91.2825 261.6008 15.05635312    17
STARLINK-35029          
1 65445C 25194M   26112.06784722  .00033489  00000+0  23249-2 0  1128
2 65445  97.5868 327.1502 0002014  93.8158 334.1994 15.05641658    15
STARLINK-34991          
1 65446C 25194N   26112.09354167  .00005720  00000+0  39712-3 0  1128
2 65446  97.5865 327.1959 0002656  91.9213 160.2691 15.05649891    11
STARLINK-34920          
1 65447C 25194P   26112.04493056  .00043910  00000+0  30487-2 0  1127
2 65447  97.5871 327.1742 0002388  91.7528 317.1091 15.05631069    13
STARLINK-35030          
1 65448C 25194Q   26112.04840278  .00056992  00000+0  39603-2 0  1123
2 65448  97.5868 327.1053 0002016 101.0159 161.7345 15.05594913    19
STARLINK-35009          
1 65449C 25194R   26112.09215278  .00006535  00000+0  45370-3 0  1122
2 65449  97.5865 327.2403 0001578  78.2091 271.4366 15.05651365    16
STARLINK-34970          
1 65450C 25194S   26112.08034722  .00022797  00000+0  15827-2 0  1127
2 65450  97.5867 327.0871 0001754  92.8581 222.8972 15.05645045    10
STARLINK-35039          
1 65451C 25194T   26112.06993056  .00028573  00000+0  19838-2 0  1124
2 65451  97.5864 327.1462 0002255  81.4098 342.8924 15.05639941    17
STARLINK-35084          
1 65452C 25194U   26112.06576389  .00038029  00000+0  26403-2 0  1124
2 65452  97.5869 327.1114 0001929  76.1504 250.5946 15.05636382    12
STARLINK-34988          
1 65453C 25194V   26112.08729167  .00020085  00000+0  14252-2 0  1123
2 65453  97.5850 328.0049 0002279  84.1957  88.8206 15.04829371    12
STARLINK-35059          
1 65454C 25194W   26112.07895833  .00024376  00000+0  17297-2 0  1126
2 65454  97.5848 327.5163 0001714  89.3060  21.2032 15.04828988    17
STARLINK-34728          
1 65455C 25194X   26112.11368056 -.00009203  00000+0 -63895-3 0  1124
2 65455  97.5869 327.1327 0002057  80.9508  85.3580 15.05661040    18
STARLINK-35005          
1 65456C 25194Y   26112.06159722  .00036108  00000+0  25075-2 0  1126
2 65456  97.5867 327.2042 0002138  77.7932  91.2636 15.05628680    18
STARLINK-35076          
1 65457C 25194Z   26112.06506944  .00037748  00000+0  26210-2 0  1122
2 65457  97.5869 327.0976 0001927  88.3946 204.5923 15.05633486    11
STARLINK-34784          
1 65458C 25195A   26112.07687500 -.00005391  00000+0 -18184-3 0  1126
2 65458  53.1610  56.4407 0001198  87.4619 123.1485 15.30167896    17
STARLINK-34867          
1 65459C 25195B   26112.11854167 -.00014688  00000+0 -49520-3 0  1124
2 65459  53.1593  56.4629 0001793  90.5651 239.1429 15.30188784    11
STARLINK-34850          
1 65460C 25195C   26112.06229167 -.00007623  00000+0 -25699-3 0  1128
2 65460  53.1594  56.9886 0001225  87.7690 158.1184 15.30187026    11
STARLINK-35159          
1 65461C 25195D   26112.08868056 -.00010335  00000+0 -34837-3 0  1125
2 65461  53.1592  56.8114 0001354  86.8837 333.5303 15.30190902    18
STARLINK-35180          
1 65462C 25195E   26112.09284722 -.00025048  00000+0 -84430-3 0  1120
2 65462  53.1584  56.6862 0001290  84.4435  51.2941 15.30200949    10
STARLINK-35111          
1 65463C 25195F   26112.10118056 -.00122440  00000+0 -41261-2 0  1127
2 65463  53.1608  56.2645 0001344  87.9336 285.7079 15.30256833    10
STARLINK-35107          
1 65464C 25195G   26112.08312500  .00000361  00000+0  12163-4 0  1121
2 65464  53.1601  56.2731 0001257  81.6402 233.2274 15.30167449    17
STARLINK-35169          
1 65465C 25195H   26112.06784722 -.00008835  00000+0 -29783-3 0  1120
2 65465  53.1588  56.8719 0001454  93.6877 229.3502 15.30190436    14
STARLINK-35027          
1 65466C 25195J   26112.11993056 -.00019116  00000+0 -64435-3 0  1126
2 65466  53.1586  56.5241 0001381  89.3776 213.0924 15.30197267    16
STARLINK-34816          
1 65467C 25195K   26112.07548611 -.00006400  00000+0 -21575-3 0  1125
2 65467  53.1594  56.9822 0001775  84.1869 205.2568 15.30185469    16
STARLINK-35033          
1 65468C 25195L   26112.06576389 -.00007167  00000+0 -24165-3 0  1127
2 65468  53.1607  56.3935 0001294  84.7566 111.1051 15.30183249    13
STARLINK-34924          
1 65469C 25195M   26112.05951389 -.00007407  00000+0 -24971-3 0  1126
2 65469  53.1596  56.9908 0001255  88.6642 147.7292 15.30187612    12
STARLINK-34829          
1 65470C 25195N   26112.04423611 -.00024789  00000+0 -83553-3 0  1122
2 65470  53.1608  56.6211 0001321  87.6285 285.5828 15.30201735    17
STARLINK-34888          
1 65471C 25195P   26112.08243056 -.00023249  00000+0 -78376-3 0  1127
2 65471  53.1588  56.6716 0001331  91.0366  16.3749 15.30195793    13
STARLINK-34799          
1 65472C 25195Q   26112.11159722 -.00020241  00000+0 -68229-3 0  1123
2 65472  53.1594  56.7834 0001396  85.6702  60.3502 15.30196918    13
STARLINK-34762          
1 65473C 25195R   26112.09770833 -.00028254  00000+0 -95248-3 0  1126
2 65473  53.1588  56.5909 0001284  89.6645 107.7759 15.30197797    10
STARLINK-34998          
1 65474C 25195S   26112.04284722 -.00026875  00000+0 -90658-3 0  1126
2 65474  53.1603  56.7064 0001439  82.1016 242.8277 15.30176846    13
STARLINK-34832          
1 65475C 25195T   26112.11576389 -.00017841  00000+0 -60142-3 0  1126
2 65475  53.1588  56.6130 0001382  84.5303 160.0719 15.30194343    15
STARLINK-35098          
1 65476C 25195U   26112.05951389 -.00008433  00000+0 -28452-3 0  1122
2 65476  53.1597  56.3532 0001152  82.7645 113.6050 15.30162246    12
STARLINK-35071          
1 65477C 25195V   26112.06368056 -.00024517  00000+0 -82636-3 0  1122
2 65477  53.1590  56.8970 0001338  90.6560 203.6059 15.30201373    11
STARLINK-35093          
1 65478C 25195W   26112.07756944 -.00002095  00000+0 -70717-4 0  1126
2 65478  53.1607  56.5192 0001473  86.8534  81.0628 15.30141710    10
STARLINK-35096          
1 65479C 25195X   26112.08798611 -.00004233  00000+0 -14281-3 0  1124
2 65479  53.1608  56.3094 0001215  78.3239 228.4496 15.30161783    15
STARLINK-35040          
1 65480C 25195Y   26112.09354167 -.00018753  00000+0 -63213-3 0  1122
2 65480  53.1590  56.5721 0001405  79.3626 100.9430 15.30195473    13
STARLINK-35042          
1 65481C 25195Z   26112.04423611 -.00025462  00000+0 -85825-3 0  1127
2 65481  53.1590  57.0316 0001327  91.1600  72.6675 15.30200772    12
STARLINK-35038          
1 65482C 25195AA  26112.06298611 -.00020475  00000+0 -69018-3 0  1125
2 65482  53.1587  56.8188 0001378  87.5786 231.9618 15.30197605    10
STARLINK-35037          
1 65483C 25195AB  26112.07756944 -.00093466  00000+0 -31497-2 0  1124
2 65483  53.1603  56.5424 0001544  80.5903  64.0429 15.30242700    11
STARLINK-35089          
1 65484C 25195AC  26112.07965278 -.00008333  00000+0 -28091-3 0  1123
2 65484  53.1594  56.9247 0001659  91.0197 227.3121 15.30187310    15
